OBJECT_NAME,OBJECT_ID,EPOCH,MEAN_MOTION,ECCENTRICITY,INCLINATION,RA_OF_ASC_NODE,ARG_OF_PERICENTER,MEAN_ANOMALY,EPHEMERIS_TYPE,CLASSIFICATION_TYPE,NORAD_CAT_ID,ELEMENT_SET_NO,REV_AT_EPOCH,BSTAR,MEAN_MOTION_DOT,MEAN_MOTION_DDOT
TDRS 3,1988-091B,2026-06-08T21:42:08.754336,1.00276770,.00384161,12.6085,341.0539,356.3393,196.5351,0,U,19548,999,12530,0,-.291E-5,0
FLTSATCOM 8 (USA 46),1989-077A,2026-06-08T22:32:00.475296,1.00281757,.00046586,12.4243,351.2165,49.6129,319.9640,0,U,20253,999,26048,0,-.358E-5,0
SKYNET 4C,1990-079A,2026-06-09T04:56:22.367616,1.00273471,.00025512,13.3429,349.8656,94.6173,280.5562,0,U,20776,999,13081,0,.134E-5,0
TDRS 5,1991-054B,2026-06-09T05:41:42.114336,1.00271540,.00061496,14.0723,353.8357,275.4003,266.1112,0,U,21639,999,12763,0,.91E-6,0
TDRS 6,1993-003B,2026-06-08T21:43:16.146336,1.00274412,.0007425,14.1828,357.1231,178.6596,1.4984,0,U,22314,999,12232,0,-.288E-5,0
UFO 2 (USA 95),1993-056A,2026-06-09T05:35:38.652000,1.00272928,.00063295,11.8924,3.6018,5.8782,0.6537,0,U,22787,999,11847,0,.134E-5,0
USA 99 (MILSTAR-1 1),1994-009A,2026-06-09T05:00:51.938208,0.98720703,.00009445,17.6144,27.7878,204.7777,149.7706,0,U,22988,999,3286,0,.15E-6,0
UFO 4 (USA 108),1995-003A,2026-06-08T19:20:08.986848,1.00271289,.00030483,9.7086,13.2625,56.6036,289.5346,0,U,23467,999,11486,0,-.12E-6,0
TDRS 7,1995-035B,2026-06-08T18:02:30.774912,1.00266681,.00110925,13.3807,348.2511,75.8813,192.6746,0,U,23613,999,11316,0,-.23E-5,0
USA 115 (MILSTAR-1 2),1995-060A,2026-06-08T14:56:58.661952,1.00366008,.00016749,14.0697,3.8104,132.4212,247.9450,0,U,23712,999,3280,0,-.167E-5,0
INMARSAT 3-F1,1996-020A,2026-06-09T04:22:09.945984,0.99980001,.00036289,10.5854,46.7098,38.6214,151.0372,0,U,23839,999,11017,0,-.157E-5,0
INMARSAT 3-F2,1996-053A,2026-06-08T13:58:13.972224,1.00004412,.00067239,9.8387,54.0257,22.2271,187.9530,0,U,24307,999,10883,0,-.18E-5,0
INMARSAT 3-F3,1996-070A,2026-06-08T20:21:28.619424,0.99978755,.00035424,10.3012,49.7346,17.5827,186.5429,0,U,24674,999,10782,0,.132E-5,0
AMC-3,1997-050A,2026-06-05T11:15:41.914368,1.00107765,.00104649,8.1165,64.2198,111.2215,173.9176,0,U,24936,999,5231,0,-.232E-5,0
USA 134,1997-065A,2026-06-09T04:57:19.944576,1.00270394,.00034635,12.7743,21.7801,339.3906,218.5464,0,U,25019,999,3287,0,-.54E-6,0
INMARSAT 3-F5,1998-006B,2026-06-09T07:52:50.870784,1.00271124,.00046312,9.6751,53.3359,21.8961,246.7276,0,U,25153,999,10381,0,-.278E-5,0
ABS-6,1999-053A,2026-06-09T03:49:34.708800,1.00276645,.00034723,0.0208,300.7995,143.6114,29.5330,0,U,25924,999,9776,0,-.102E-5,0
UFO 10 (USA 146),1999-063A,2026-06-09T02:23:47.247360,1.00272679,.00018753,9.8496,27.2538,25.9726,217.2689,0,U,25967,999,9726,0,-.177E-5,0
ASIASTAR,2000-016A,2026-06-07T15:33:02.342592,1.00273400,.00047121,9.1019,58.2562,17.4232,158.6382,0,U,26107,999,9582,0,-.321E-5,0
USA 149 (DSP 20),2000-024A,2026-06-09T04:59:20.101056,1.00271898,.00016038,13.1643,11.9070,310.3002,204.8024,0,U,26356,999,3283,0,.103E-5,0
TDRS 8,2000-034A,2026-06-09T02:29:38.700096,1.00268703,.00049133,12.6714,31.3927,12.1935,336.0333,0,U,26388,999,9509,0,-.183E-5,0
NSS-11,2000-059A,2026-06-09T05:37:12.544608,1.00272539,.00030183,2.1050,81.4828,0.5870,75.8445,0,U,26554,999,4121,0,.42E-6,0
USA 153,2000-065A,2026-06-08T13:42:35.436672,1.00271802,.00031283,11.6099,35.4929,45.7539,155.8756,0,U,26575,999,3284,0,-.313E-5,0
AMC-6,2000-067A,2026-06-09T06:01:53.702400,1.00271487,.00036181,0.1309,83.0200,4.5670,125.4756,0,U,26580,999,9381,0,.105E-5,0
USA 157 (MILSTAR-2 2),2001-009A,2026-06-09T07:06:00.399744,1.00271671,.00392078,11.5336,19.8107,177.1838,17.0985,0,U,26715,999,3286,0,.12E-5,0
USA 159 (DSP 21),2001-033A,2026-06-08T23:22:04.986048,0.99199497,.0001482,12.7740,16.4968,127.2512,44.8451,0,U,26880,999,3287,0,-.2E-5,0
INTELSAT 902 (IS-902),2001-039A,2026-06-09T06:00:38.892096,1.00272549,.00044264,6.0963,71.8806,4.4891,221.3211,0,U,26900,999,9061,0,-.268E-5,0
USA 164 (MILSTAR-2 3),2002-001A,2026-06-09T06:34:59.761056,1.00274832,.00991456,11.1697,21.9527,8.2826,345.1140,0,U,27168,999,3287,0,.108E-5,0
INTELSAT 904 (IS-904),2002-007A,2026-06-09T05:52:38.434656,1.00272888,.00066851,6.8994,69.2783,1.2026,243.8061,0,U,27380,999,5168,0,-.21E-5,0
DIRECTV 5 (TEMPO 1),2002-023A,2026-06-09T05:58:16.121280,1.00271556,.00033324,4.8566,75.4081,13.1731,148.5099,0,U,27426,999,8804,0,-.41E-6,0
INTELSAT 905 (IS-905),2002-027A,2026-06-08T14:29:28.390848,1.00269870,.00039537,6.7311,69.9025,14.5648,252.6814,0,U,27438,999,5127,0,.109E-5,0
