TDRS 3                  
1 19548U 88091B   26159.90426799 -.00000291  00000+0  00000+0 0  9993
2 19548  12.6085 341.0539 0038416 356.3393 196.5351  1.00276770125301
FLTSATCOM 8 (USA 46)    
1 20253U 89077A   26159.93889439 -.00000358  00000+0  00000+0 0  9994
2 20253  12.4243 351.2165 0004658  49.6129 319.9640  1.00281757260480
SKYNET 4C               
1 20776U 90079A   26160.20581444  .00000134  00000+0  00000+0 0  9996
2 20776  13.3429 349.8656 0002551  94.6173 280.5562  1.00273471130816
TDRS 5                  
1 21639U 91054B   26160.23729299  .00000091  00000+0  00000+0 0  9996
2 21639  14.0723 353.8357 0006149 275.4003 266.1112  1.00271540127633
TDRS 6                  
1 22314U 93003B   26159.90504799 -.00000288  00000+0  00000+0 0  9990
2 22314  14.1828 357.1231 0007425 178.6596   1.4984  1.00274412122327
UFO 2 (USA 95)          
1 22787U 93056A   26160.23308625  .00000134  00000+0  00000+0 0  9999
2 22787  11.8924   3.6018 0006329   5.8782   0.6537  1.00272928118474
USA 99 (MILSTAR-1 1)    
1 22988U 94009A   26160.20893447  .00000015  00000+0  00000+0 0  9997
2 22988  17.6144  27.7878 0000944 204.7777 149.7706  0.98720703 32863
UFO 4 (USA 108)         
1 23467U 95003A   26159.80565957 -.00000012  00000+0  00000+0 0  9999
2 23467   9.7086  13.2625 0003048  56.6036 289.5346  1.00271289114861
TDRS 7                  
1 23613U 95035B   26159.75174508 -.00000230  00000+0  00000+0 0  9991
2 23613  13.3807 348.2511 0011092  75.8813 192.6746  1.00266681113165
USA 115 (MILSTAR-1 2)   
1 23712U 95060A   26159.62290118 -.00000167  00000+0  00000+0 0  9990
2 23712  14.0697   3.8104 0001674 132.4212 247.9450  1.00366008 32801
INMARSAT 3-F1           
1 23839U 96020A   26160.18205956 -.00000157  00000+0  00000+0 0  9995
2 23839  10.5854  46.7098 0003628  38.6214 151.0372  0.99980001110172
INMARSAT 3-F2           
1 24307U 96053A   26159.58210616 -.00000180  00000+0  00000+0 0  9999
2 24307   9.8387  54.0257 0006723  22.2271 187.9530  1.00004412108835
INMARSAT 3-F3           
1 24674U 96070A   26159.84824791  .00000132  00000+0  00000+0 0  9995
2 24674  10.3012  49.7346 0003542  17.5827 186.5429  0.99978755107821
AMC-3                   
1 24936U 97050A   26156.46923512 -.00000232  00000+0  00000+0 0  9993
2 24936   8.1165  64.2198 0010464 111.2215 173.9176  1.00107765 52317
USA 134                 
1 25019U 97065A   26160.20648084 -.00000054  00000+0  00000+0 0  9999
2 25019  12.7743  21.7801 0003463 339.3906 218.5464  1.00270394 32877
INMARSAT 3-F5           
1 25153U 98006B   26160.32836656 -.00000278  00000+0  00000+0 0  9999
2 25153   9.6751  53.3359 0004631  21.8961 246.7276  1.00271124103810
ABS-6                   
1 25924U 99053A   26160.15942950 -.00000102  00000+0  00000+0 0  9990
2 25924   0.0208 300.7995 0003472 143.6114  29.5330  1.00276645 97765
UFO 10 (USA 146)        
1 25967U 99063A   26160.09985240 -.00000177  00000+0  00000+0 0  9992
2 25967   9.8496  27.2538 0001875  25.9726 217.2689  1.00272679 97269
ASIASTAR                
1 26107U 00016A   26158.64794378 -.00000321  00000+0  00000+0 0  9998
2 26107   9.1019  58.2562 0004712  17.4232 158.6382  1.00273400 95823
USA 149 (DSP 20)        
1 26356U 00024A   26160.20787154  .00000103  00000+0  00000+0 0  9999
2 26356  13.1643  11.9070 0001603 310.3002 204.8024  1.00271898 32831
TDRS 8                  
1 26388U 00034A   26160.10392014 -.00000183  00000+0  00000+0 0  9990
2 26388  12.6714  31.3927 0004913  12.1935 336.0333  1.00268703 95094
NSS-11                  
1 26554U 00059A   26160.23417297  .00000042  00000+0  00000+0 0  9990
2 26554   2.1050  81.4828 0003018   0.5870  75.8445  1.00272539 41215
USA 153                 
1 26575U 00065A   26159.57124348 -.00000313  00000+0  00000+0 0  9999
2 26575  11.6099  35.4929 0003128  45.7539 155.8756  1.00271802 32847
AMC-6                   
1 26580U 00067A   26160.25131600  .00000105  00000+0  00000+0 0  9991
2 26580   0.1309  83.0200 0003618   4.5670 125.4756  1.00271487 93810
USA 157 (MILSTAR-2 2)   
1 26715U 01009A   26160.29583796  .00000120  00000+0  00000+0 0  9996
2 26715  11.5336  19.8107 0039207 177.1838  17.0985  1.00271671 32868
USA 159 (DSP 21)        
1 26880U 01033A   26159.97366882 -.00000200  00000+0  00000+0 0  9994
2 26880  12.7740  16.4968 0001482 127.2512  44.8451  0.99199497 32879
INTELSAT 902 (IS-902)   
1 26900U 01039A   26160.25045014 -.00000268  00000+0  00000+0 0  9991
2 26900   6.0963  71.8806 0004426   4.4891 221.3211  1.00272549 90613
USA 164 (MILSTAR-2 3)   
1 27168U 02001A   26160.27430279  .00000108  00000+0  00000+0 0  9993
2 27168  11.1697  21.9527 0099145   8.2826 345.1140  1.00274832 32876
INTELSAT 904 (IS-904)   
1 27380U 02007A   26160.24488929 -.00000210  00000+0  00000+0 0  9992
2 27380   6.8994  69.2783 0006685   1.2026 243.8061  1.00272888 51689
DIRECTV 5 (TEMPO 1)     
1 27426U 02023A   26160.24879770 -.00000041  00000+0  00000+0 0  9991
2 27426   4.8566  75.4081 0003332  13.1731 148.5099  1.00271556 88047
INTELSAT 905 (IS-905)   
1 27438U 02027A   26159.60380082  .00000109  00000+0  00000+0 0  9993
2 27438   6.7311  69.9025 0003953  14.5648 252.6814  1.00269870 51279
